{"type":"FeatureCollection","features":[{"type":"Feature","properties":{"Nombre":"ARBA","marker-color":"#000000","marker-size":"medium","marker-symbol":"circle"},"geometry":{"coordinates":[-59.93412458752309,-36.52820583941418],"type":"Point"},"id":0},{"type":"Feature","properties":{"Nombre":"La Pampa"},"geometry":{"coordinates":[-65.6065919620726,-37.28416374803685],"type":"Point"}},{"type":"Feature","properties":{"Nombre":"Chubut"},"geometry":{"coordinates":[-68.20647284207494,-43.57341989735394],"type":"Point"}},{"type":"Feature","properties":{"Nombre":"Rio Negro"},"geometry":{"coordinates":[-66.99441342766974,-39.28526400836544],"type":"Point"}},{"type":"Feature","properties":{"Nombre":"Neuquen"},"geometry":{"coordinates":[-69.8897353167626,-38.225493095285486],"type":"Point"}},{"type":"Feature","properties":{"Nombre":"Santa Cruz"},"geometry":{"coordinates":[-69.65338250948948,-48.18296999577818],"type":"Point"}},{"type":"Feature","properties":{"Nombre":"Tierra del fuego"},"geometry":{"coordinates":[-68.03890894884478,-54.260263743985725],"type":"Point"}},{"type":"Feature","properties":{"Nombre":"Entre Rios"},"geometry":{"coordinates":[-58.87022175458469,-31.63482710765036],"type":"Point"}},{"type":"Feature","properties":{"Nombre":"Santa Fé"},"geometry":{"coordinates":[-60.8736997560745,-29.91356869196278],"type":"Point"}},{"type":"Feature","properties":{"Nombre":"Corrientes"},"geometry":{"coordinates":[-57.61804800365286,-28.217221457187193],"type":"Point"}},{"type":"Feature","properties":{"Nombre":"Misiones"},"geometry":{"coordinates":[-54.738048376511344,-27.16392014897771],"type":"Point"}},{"type":"Feature","properties":{"Nombre":"Chaco"},"geometry":{"coordinates":[-60.56065631834157,-27.275270924000594],"type":"Point"}},{"type":"Feature","properties":{"Nombre":"Santiago del Estero"},"geometry":{"coordinates":[-63.5658733205767,-27.219609450215394],"type":"Point"}},{"type":"Feature","properties":{"Nombre":"Cordoba"},"geometry":{"coordinates":[-64.06674282094974,-30.562644700740613],"type":"Point"}},{"type":"Feature","properties":{"Nombre":"La Rioja"},"geometry":{"coordinates":[-67.38500326091783,-29.396694114867344],"type":"Point"}},{"type":"Feature","properties":{"Nombre":"San Juan"},"geometry":{"coordinates":[-69.20065519976761,-30.04914588114633],"type":"Point"}},{"type":"Feature","properties":{"Nombre":"Mendoza"},"geometry":{"coordinates":[-68.51195963675599,-33.92433854774835],"type":"Point"}},{"type":"Feature","properties":{"Nombre":"Formosa"},"geometry":{"coordinates":[-58.984682254376835,-25.213312067427182],"type":"Point"}},{"type":"Feature","properties":{"Nombre":"Salta"},"geometry":{"coordinates":[-64.6272780249717,-25.05851645890175],"type":"Point"}},{"type":"Feature","properties":{"Nombre":"Jujuy"},"geometry":{"coordinates":[-66.190594602106,-22.983719474598388],"type":"Point"}},{"type":"Feature","properties":{"Nombre":"Catamarca"},"geometry":{"coordinates":[-67.36308203495685,-26.881109727392094],"type":"Point"}},{"type":"Feature","properties":{"Nombre":"ARBA C","stroke":"#555555","stroke-width":2,"stroke-opacity":1,"fill":"#000000","fill-opacity":0.5},"geometry":{"coordinates":[[[-59.942851210293554,-35.48381186930326],[-60.06552310681739,-35.48871832360517],[-60.1870570985936,-35.50339215589518],[-60.30632467030658,-35.52769715176096],[-60.42221604707424,-35.56140754359757],[-60.53364946760518,-35.60420988925212],[-60.63958033814843,-35.65570569007412],[-60.73901022298833,-35.715414736096214],[-60.830995623476156,-35.782779162242726],[-60.914656493035004,-35.85716819539407],[-60.989184430345894,-35.93788356776956],[-61.05385048718384,-36.02416556738198],[-61.10801252133478,-36.11519969122047],[-61.151122018958205,-36.210123861306585],[-61.1827303049895,-36.30803615782814],[-61.20249405508635,-36.408003017200386],[-61.210180018645765,-36.50906783617469],[-61.20566886002455,-36.61025991609059],[-61.18895802477656,-36.7106036741653],[-61.16016353995763,-36.80912804149725],[-61.11952066279238,-36.904875960434055],[-61.06738330061778,-36.996913887366816],[-61.00422213728029,-37.08434120114539],[-60.930621417180504,-37.16629941247118],[-60.847274357860755,-37.24198106613555],[-60.75497718514161,-37.31063822614692],[-60.65462181083025,-37.37159043391805],[-60.5471872012254,-37.424232032008675],[-60.43372951410329,-37.468038750615726],[-60.31537111149263,-37.50257346116129],[-60.19328858412859,-37.52749101094],[-60.06869994976373,-37.54254206473127],[-59.942851210293554,-37.54757589332665],[-59.81700247082339,-37.54254206473127],[-59.692413836458535,-37.52749101094],[-59.57033130909449,-37.50257346116129],[-59.45197290648383,-37.468038750615726],[-59.338515219361724,-37.424232032008675],[-59.23108060975687,-37.37159043391805],[-59.130725235445496,-37.31063822614692],[-59.03842806272637,-37.24198106613555],[-58.95508100340662,-37.16629941247118],[-58.881480283306836,-37.08434120114539],[-58.818319119969345,-36.996913887366816],[-58.76618175779473,-36.904875960434055],[-58.725538880629486,-36.80912804149725],[-58.69674439581057,-36.7106036741653],[-58.68003356056257,-36.61025991609059],[-58.67552240194136,-36.50906783617469],[-58.683208365500775,-36.4080030172004],[-58.70297211559762,-36.30803615782814],[-58.73458040162891,-36.210123861306585],[-58.777689899252344,-36.11519969122047],[-58.831851933403286,-36.02416556738198],[-58.896517990241215,-35.93788356776956],[-58.97104592755212,-35.85716819539407],[-59.05470679711097,-35.782779162242726],[-59.146692197598796,-35.715414736096214],[-59.246122082438696,-35.65570569007412],[-59.35205295298194,-35.60420988925212],[-59.46348637351288,-35.56140754359757],[-59.57937775028053,-35.52769715176096],[-59.698645321993524,-35.50339215589518],[-59.82017931376972,-35.48871832360517],[-59.942851210293554,-35.48381186930326]]],"type":"Polygon"},"id":21},{"type":"Feature","properties":{"Nombre":"AGIP","marker-color":"#000000","marker-size":"medium","marker-symbol":"circle"},"geometry":{"coordinates":[-58.41898343635657,-34.64672154394299],"type":"Point"},"id":22},{"type":"Feature","properties":{},"geometry":{"coordinates":[-66.132829509986,-32.58935044884524],"type":"Point"}},{"type":"Feature","properties":{},"geometry":{"coordinates":[-65.28680220595047,-26.70667616301661],"type":"Point"}}]}